NORAD_CAT_ID,OBJECT_NAME,OBJECT_TYPE,EPOCH,MEAN_MOTION,ECCENTRICITY,INCLINATION,RA_OF_ASC_NODE,ARG_OF_PERICENTER,MEAN_ANOMALY,BSTAR,MEAN_MOTION_DOT,MEAN_MOTION_DDOT,TLE_LINE0,TLE_LINE1,TLE_LINE2,SEMIMAJOR_AXIS,PERIOD,APOGEE,PERIGEE,DECAYED
50206.0,STARLINK-3258,PAYLOAD,2022-09-23 23:57:57,15.08857378,0.00022,53.2161,147.5711,48.9272,311.191,0.00017098,2.435e-05,0.0,0 STARLINK-3258,1 50206U 21125BC  22266.99858439  .00002435  00000-0  17098-3 0  9999,2 50206  53.2161 147.5711 0002200  48.9272 311.1910 15.08857378 44034,6917.8269999999975,95.436,541.214,538.17,0.0
50206.0,STARLINK-3258,PAYLOAD,2022-09-24 20:37:59,15.0884262,0.0002103,53.2161,143.7059,46.0476,314.069,0.00013234,1.819e-05,0.0,0 STARLINK-3258,1 50206U 21125BC  22267.85971066  .00001819  00000-0  13234-3 0  9990,2 50206  53.2161 143.7059 0002103  46.0476 314.0690 15.08842620 44169,6917.871999999999,95.437,541.192,538.283,0.0
50206.0,STARLINK-3258,PAYLOAD,2022-09-25 10:56:26,15.08847647,0.0002085,53.216,141.0294,45.6326,314.4836,0.00014161,1.967e-05,0.0,0 STARLINK-3258,1 50206U 21125BC  22268.45586656  .00001967  00000-0  14161-3 0  9998,2 50206  53.2160 141.0294 0002085  45.6326 314.4836 15.08847647 44258,6917.857,95.437,541.164,538.28,0.0
50206.0,STARLINK-3258,PAYLOAD,2022-09-25 18:53:22,15.08842369,0.0002073999999999,53.2159,139.5424,46.2952,313.8212,7.083e-06,-1.76e-06,0.0,0 STARLINK-3258,1 50206U 21125BC  22268.78706848 -.00000176  00000-0  70830-5 0  9990,2 50206  53.2159 139.5424 0002074  46.2952 313.8212 15.08842369 44306,6917.873000000001,95.437,541.173,538.303,0.0
50206.0,STARLINK-3258,PAYLOAD,2022-09-25 22:04:09,15.08842674,0.0001996999999999,53.2169,138.947,46.618,313.4978,-9.3051e-06,-4.36e-06,0.0,0 STARLINK-3258,1 50206U 21125BC  22268.91954961 -.00000436  00000-0 -93051-5 0  9996,2 50206  53.2169 138.9470 0001997  46.6180 313.4978 15.08842674 44327,6917.871999999999,95.437,541.119,538.356,0.0
50206.0,STARLINK-3258,PAYLOAD,2022-09-26 18:44:10,15.08831784,0.0001894,53.217,135.0806,47.9775,312.1378,-3.5258e-06,-3.44e-06,0.0,0 STARLINK-3258,1 50206U 21125BC  22269.78067779 -.00000344  00000-0 -35258-5 0  9997,2 50206  53.2170 135.0806 0001894  47.9775 312.1378 15.08831784 44454,6917.906,95.438,541.081,538.46,0.0
50206.0,STARLINK-3258,PAYLOAD,2022-09-27 07:27:15,15.08837211,0.0001934,53.2169,132.7019,47.4885,312.627,2.3926e-05,9.3e-07,0.0,0 STARLINK-3258,1 50206U 21125BC  22270.31059573  .00000093  00000-0  23926-4 0  9998,2 50206  53.2169 132.7019 0001934  47.4885 312.6270 15.08837211 44530,6917.889,95.438,541.092,538.4159999999998,0.0
50206.0,STARLINK-3258,PAYLOAD,2022-09-27 18:34:56,15.08843642,0.0001983,53.2168,130.6201,47.5232,312.5928,0.0001274999999999,1.742e-05,0.0,0 STARLINK-3258,1 50206U 21125BC  22270.77426997  .00001742  00000-0  12750-3 0  9990,2 50206  53.2168 130.6201 0001983  47.5232 312.5928 15.08843642 44602,6917.869000000002,95.437,541.106,538.362,0.0
50206.0,STARLINK-3258,PAYLOAD,2022-09-28 00:56:29,15.08847289,0.000213,53.217,129.4303,44.9407,315.1757,0.00019499,2.817e-05,0.0,0 STARLINK-3258,1 50206U 21125BC  22271.03922749  .00002817  00000-0  19499-3 0  9997,2 50206  53.2170 129.4303 0002130  44.9407 315.1757 15.08847289 44648,6917.858,95.437,541.197,538.25,0.0
50206.0,STARLINK-3258,PAYLOAD,2022-09-28 13:39:34,15.08840248,0.0001431999999999,53.2173,127.0467,66.9532,293.1611,0.0001911999999999,2.756e-05,0.0,0 STARLINK-3258,1 50206U 21125BC  22271.56915124  .00002756  00000-0  19120-3 0  9997,2 50206  53.2173 127.0467 0001432  66.9532 293.1611 15.08840248 44724,6917.88,95.438,540.735,538.754,0.0
50206.0,STARLINK-3258,PAYLOAD,2022-09-29 08:44:12,15.08838965,0.0002108,53.216,123.4841,45.3879,314.7285,7.8024e-05,9.54e-06,0.0,0 STARLINK-3258,1 50206U 21125BC  22272.36403897  .00000954  00000-0  78024-4 0  9992,2 50206  53.2160 123.4841 0002108  45.3879 314.7285 15.08838965 44845,6917.884,95.438,541.207,538.29,0.0
50206.0,STARLINK-3258,PAYLOAD,2022-09-30 13:21:08,15.08851332,0.0001811999999999,53.2164,118.1315,46.5943,313.52,0.00019418,2.805e-05,0.0,0 STARLINK-3258,1 50206U 21125BC  22273.55634797  .00002805  00000-0  19418-3 0  9997,2 50206  53.2164 118.1315 0001812  46.5943 313.5200 15.08851332 45020,6917.846,95.437,540.964,538.457,0.0
50206.0,STARLINK-3258,PAYLOAD,2022-09-30 16:31:54,15.08856163,0.0002024,53.2152,117.5363,41.0773,319.0371,-7.450600000000001e-05,-1.474e-05,0.0,0 STARLINK-3258,1 50206U 21125BC  22273.68882620 -.00001474  00000-0 -74506-4 0  9994,2 50206  53.2152 117.5363 0002024  41.0773 319.0371 15.08856163 45049,6917.831,95.437,541.096,538.2959999999998,0.0
50206.0,STARLINK-3258,PAYLOAD,2022-09-30 21:18:04,15.08842276,0.0001889,53.2166,116.6437,41.6341,318.4795,0.0001354,1.868e-05,0.0,0 STARLINK-3258,1 50206U 21125BC  22273.88755367  .00001868  00000-0  13540-3 0  9998,2 50206  53.2166 116.6437 0001889  41.6341 318.4795 15.08842276 45077,6917.873000000001,95.437,541.045,538.432,0.0
50206.0,STARLINK-3258,PAYLOAD,2022-10-01 08:25:46,15.08841962,0.0001808,53.2155,114.5617,40.1009,320.0116,0.00017994,2.577e-05,0.0,0 STARLINK-3258,1 50206U 21125BC  22274.35123302  .00002577  00000-0  17994-3 0  9994,2 50206  53.2155 114.5617 0001808  40.1009 320.0116 15.08841962 45143,6917.874,95.437,540.99,538.489,0.0
50206.0,STARLINK-3258,PAYLOAD,2022-10-01 19:33:28,15.08845291,0.0002006999999999,53.216,112.4804,40.774,319.3402,-0.00013624,-2.456e-05,0.0,0 STARLINK-3258,1 50206U 21125BC  22274.81491091 -.00002456  00000-0 -13624-3 0  9992,2 50206  53.2160 112.4804 0002007  40.7740 319.3402 15.08845291 45210,6917.864000000001,95.437,541.118,538.341,0.0
50206.0,STARLINK-3258,PAYLOAD,2022-10-02 00:19:38,15.08841649,0.0001792,53.217,111.5888,42.4325,317.6805,3.8016e-05,3.17e-06,0.0,0 STARLINK-3258,1 50206U 21125BC  22275.01363592  .00000317  00000-0  38016-4 0  9994,2 50206  53.2170 111.5888 0001792  42.4325 317.6805 15.08841649 45245,6917.875,95.437,540.98,538.501,0.0
50206.0,STARLINK-3258,PAYLOAD,2022-10-02 06:41:10,15.08844911,0.0001851,53.217,110.3992,41.0796,319.0335,4.444e-05,4.19e-06,0.0,0 STARLINK-3258,1 50206U 21125BC  22275.27859319  .00000419  00000-0  44440-4 0  9990,2 50206  53.2170 110.3992 0001851  41.0796 319.0335 15.08844911 45284,6917.865,95.437,541.011,538.45,0.0
50206.0,STARLINK-3258,PAYLOAD,2022-10-02 19:24:16,15.08832394,0.000196,53.217,108.0213,42.8311,317.2833,5.5319e-06,-2e-06,0.0,0 STARLINK-3258,1 50206U 21125BC  22275.80852348 -.00000200  00000-0  55319-5 0  9991,2 50206  53.2170 108.0213 0001960  42.8311 317.2833 15.08832394 45361,6917.904,95.438,541.125,538.413,0.0
50206.0,STARLINK-3258,PAYLOAD,2022-10-03 12:53:30,15.0884407,0.0002008,53.2172,104.7504,42.0066,318.108,0.00010424,1.371e-05,0.0,0 STARLINK-3258,1 50206U 21125BC  22276.53715512  .00001371  00000-0  10424-3 0  9998,2 50206  53.2172 104.7504 0002008  42.0066 318.1080 15.08844070 45472,6917.868,95.437,541.122,538.344,0.0
50206.0,STARLINK-3258,PAYLOAD,2022-10-03 19:15:02,15.08851249,0.0002002,53.217,103.5607,43.4206,316.6943,0.00014308,1.99e-05,0.0,0 STARLINK-3258,1 50206U 21125BC  22276.80210970  .00001990  00000-0  14308-3 0  9998,2 50206  53.2170 103.5607 0002002  43.4206 316.6943 15.08851249 45518,6917.846,95.437,541.096,538.326,0.0
50206.0,STARLINK-3258,PAYLOAD,2022-10-03 22:25:48,15.08845223,0.0001855,53.2169,102.9654,41.907,318.2064,0.00017492,2.497e-05,0.0,0 STARLINK-3258,1 50206U 21125BC  22276.93459347  .00002497  00000-0  17492-3 0  9995,2 50206  53.2169 102.9654 0001855  41.9070 318.2064 15.08845223 45537,6917.864000000001,95.437,541.013,538.446,0.0
50206.0,STARLINK-3258,PAYLOAD,2022-10-04 19:05:50,15.08841423,0.0001994,53.2165,99.1007,40.9427,319.1715,0.0001675999999999,2.380000000000001e-05,0.0,0 STARLINK-3258,1 50206U 21125BC  22277.79571944  .00002380  00000-0  16760-3 0  9996,2 50206  53.2165  99.1007 0001994  40.9427 319.1715 15.08841423 45666,6917.876,95.437,541.12,538.362,0.0
50206.0,STARLINK-3258,PAYLOAD,2022-10-04 22:16:36,15.08841404,0.0002008,53.2165,98.506,41.3876,318.7268,0.0001585,2.235e-05,0.0,0 STARLINK-3258,1 50206U 21125BC  22277.92819936  .00002235  00000-0  15850-3 0  9995,2 50206  53.2165  98.5060 0002008  41.3876 318.7268 15.08841404 45687,6917.876,95.437,541.13,538.352,0.0
50206.0,STARLINK-3258,PAYLOAD,2022-10-05 18:56:37,15.08841384,0.0002023,53.2169,94.6404,42.0481,318.0667,-1.3884e-05,-5.09e-06,0.0,0 STARLINK-3258,1 50206U 21125BC  22278.78931818 -.00000509  00000-0 -13884-4 0  9994,2 50206  53.2169  94.6404 0002023  42.0481 318.0667 15.08841384 45815,6917.876,95.437,541.141,538.342,0.0
50206.0,STARLINK-3258,PAYLOAD,2022-10-05 22:07:23,15.08844145,0.0002000999999999,53.2176,94.0454,42.0192,318.0954,2.4189e-05,9.7e-07,0.0,0 STARLINK-3258,1 50206U 21125BC  22278.92179852  .00000097  00000-0  24189-4 0  9992,2 50206  53.2176  94.0454 0002001  42.0192 318.0954 15.08844145 45836,6917.868,95.437,541.117,538.3480000000002,0.0
50206.0,STARLINK-3258,PAYLOAD,2022-10-06 20:22:47,15.08840884,0.0001972,53.2179,89.8818,40.6436,319.4703,0.00011343,1.518e-05,0.0,0 STARLINK-3258,1 50206U 21125BC  22279.84916114  .00001518  00000-0  11343-3 0  9990,2 50206  53.2179  89.8818 0001972  40.6436 319.4703 15.08840884 45974,6917.878000000002,95.437,541.107,538.378,0.0
50206.0,STARLINK-3258,PAYLOAD,2022-10-07 04:19:42,15.0884934,0.0002063,53.2168,88.3947,36.3762,323.737,0.00023204,3.408e-05,0.0,0 STARLINK-3258,1 50206U 21125BC  22280.18035629  .00003408  00000-0  23204-3 0  9991,2 50206  53.2168  88.3947 0002063  36.3762 323.7370 15.08849340 46026,6917.852,95.437,541.144,538.29,0.0
50206.0,STARLINK-3258,PAYLOAD,2022-10-07 18:38:11,15.08831751,0.0002089,53.2163,85.7194,44.5296,315.5864,2.7165e-06,-2.45e-06,0.0,0 STARLINK-3258,1 50206U 21125BC  22280.77652455 -.00000245  00000-0  27165-5 0  9997,2 50206  53.2163  85.7194 0002089  44.5296 315.5864 15.08831751 46111,6917.906,95.438,541.216,538.325,0.0
